start=new Date('2021-08-28T00:00:00.000Z').valueOf();
sats=[{"RA_OF_ASC_NODE":"92.9166","REF_FRAME":"TEME","MEAN_MOTION_DOT":"0.00286825","ELEMENT_SET_NO":"999","MEAN_ANOMALY":"334.1727","ARG_OF_PERICENTER":"25.9343","SEMIMAJOR_AXIS":"6833.040","PERIOD":"93.687","EPOCH":"2021-08-27T19:08:26.038176","APOAPSIS":"455.843","INCLINATION":"53.0001","TLE_LINE1":"1 44769U 19074BJ  21239.79752359  .00286825  00000-0  75210-2 0  9993","GP_ID":"183555573","OBJECT_ID":"2019-074BJ","TIME_SYSTEM":"UTC","MEAN_ELEMENT_THEORY":"SGP4","SITE":"AFETR","OBJECT_TYPE":"PAYLOAD","COUNTRY_CODE":"US","CLASSIFICATION_TYPE":"U","OBJECT_NAME":"STARLINK-1064","MEAN_MOTION":"15.37028076","NORAD_CAT_ID":"44769","REV_AT_EPOCH":"9887","ECCENTRICITY":"0.00013720","MEAN_MOTION_DDOT":"0.0000000000000","DECAY_DATE":null,"LAUNCH_DATE":"2019-11-11","BSTAR":"0.00752100000000","TLE_LINE2":"2 44769  53.0001  92.9166 0001372  25.9343 334.1727 15.37028076 98871","FILE":"3104038","CENTER_NAME":"EARTH","RCS_SIZE":"LARGE","PERIAPSIS":"453.968","EPHEMERIS_TYPE":"0"},{"RA_OF_ASC_NODE":"91.1547","REF_FRAME":"TEME","MEAN_MOTION_DOT":"0.00003352","ARG_OF_PERICENTER":"102.0477","SEMIMAJOR_AXIS":"6919.361","PERIOD":"95.468","MEAN_ANOMALY":"258.0649","ELEMENT_SET_NO":"999","TLE_LINE1":"1 44770U 19074BK  21239.82582933  .00003352  00000-0  23153-3 0  9990","GP_ID":"183555291","OBJECT_ID":"2019-074BK","TIME_SYSTEM":"UTC","MEAN_ELEMENT_THEORY":"SGP4","EPOCH":"2021-08-27T19:49:11.654112","APOAPSIS":"542.066","INCLINATION":"53.0028","COUNTRY_CODE":"US","SITE":"AFETR","OBJECT_TYPE":"PAYLOAD","OBJECT_NAME":"STARLINK-1065","CLASSIFICATION_TYPE":"U","MEAN_MOTION":"15.08355703","NORAD_CAT_ID":"44770","REV_AT_EPOCH":"9881","MEAN_MOTION_DDOT":"0.0000000000000","DECAY_DATE":null,"ECCENTRICITY":"0.00012140","BSTAR":"0.00023153000000","TLE_LINE2":"2 44770  53.0028  91.1547 0001214 102.0477 258.0649 15.08355703 98815","RCS_SIZE":"LARGE","FILE":"3104038","EPHEMERIS_TYPE":"0","PERIAPSIS":"540.386","CENTER_NAME":"EARTH","LAUNCH_DATE":"2019-11-11"},{"TLE_LINE2":"2 44771  53.0563  95.4647 0002101  81.3214 278.8013 15.06406340 98774","BSTAR":"0.00008033800000","RCS_SIZE":"LARGE","FILE":"3104038","PERIAPSIS":"545.739","EPHEMERIS_TYPE":"0","CENTER_NAME":"EARTH","LAUNCH_DATE":"2019-11-11","MEAN_MOTION_DDOT":"0.0000000000000","DECAY_DATE":null,"ECCENTRICITY":"0.00021010","NORAD_CAT_ID":"44771","MEAN_MOTION":"15.06406340","REV_AT_EPOCH":"9877","OBJECT_NAME":"STARLINK-1067","CLASSIFICATION_TYPE":"U","COUNTRY_CODE":"US","OBJECT_TYPE":"PAYLOAD","SITE":"AFETR","GP_ID":"183554058","TLE_LINE1":"1 44771U 19074BL  21239.85458179  .00000915  00000-0  80338-4 0  9999","MEAN_ELEMENT_THEORY":"SGP4","OBJECT_ID":"2019-074BL","TIME_SYSTEM":"UTC","INCLINATION":"53.0563","APOAPSIS":"548.649","EPOCH":"2021-08-27T20:30:35.866656","PERIOD":"95.592","ARG_OF_PERICENTER":"81.3214","SEMIMAJOR_AXIS":"6925.329","ELEMENT_SET_NO":"999","MEAN_ANOMALY":"278.8013","MEAN_MOTION_DOT":"0.00000915","RA_OF_ASC_NODE":"95.4647","REF_FRAME":"TEME"},{"RA_OF_ASC_NODE":"75.8056","REF_FRAME":"TEME","MEAN_MOTION_DOT":"0.00001187","ELEMENT_SET_NO":"999","MEAN_ANOMALY":"268.0668","SEMIMAJOR_AXIS":"6925.364","ARG_OF_PERICENTER":"92.0546","PERIOD":"95.592","EPOCH":"2021-08-27T18:41:48.038208","INCLINATION":"53.0548","APOAPSIS":"548.588","TIME_SYSTEM":"UTC","OBJECT_ID":"2019-074BM","MEAN_ELEMENT_THEORY":"SGP4","TLE_LINE1":"1 44772U 19074BM  21239.77902822  .00001187  00000-0  98578-4 0  9997","GP_ID":"183554822","SITE":"AFETR","OBJECT_TYPE":"PAYLOAD","COUNTRY_CODE":"US","CLASSIFICATION_TYPE":"U","OBJECT_NAME":"STARLINK-1068","REV_AT_EPOCH":"9903","MEAN_MOTION":"15.06395039","NORAD_CAT_ID":"44772","ECCENTRICITY":"0.00019630","DECAY_DATE":null,"MEAN_MOTION_DDOT":"0.0000000000000","LAUNCH_DATE":"2019-11-11","EPHEMERIS_TYPE":"0","FILE":"3104038","RCS_SIZE":"LARGE","PERIAPSIS":"545.869","CENTER_NAME":"EARTH","BSTAR":"0.00009857800000","TLE_LINE2":"2 44772  53.0548  75.8056 0001963  92.0546 268.0668 15.06395039 99035"},{"CLASSIFICATION_TYPE":"U","OBJECT_NAME":"STARLINK-1073","REV_AT_EPOCH":"9036","MEAN_MOTION":"15.06410025","NORAD_CAT_ID":"44914","ECCENTRICITY":"0.00015400","DECAY_DATE":null,"MEAN_MOTION_DDOT":"0.0000000000000","LAUNCH_DATE":"2020-01-07","RCS_SIZE":"LARGE","FILE":"3103885","PERIAPSIS":"546.116","EPHEMERIS_TYPE":"0","CENTER_NAME":"EARTH","BSTAR":"0.00008566900000","TLE_LINE2":"2 44914  53.0547 217.2243 0001540  41.4491 318.6615 15.06410025 90364","RA_OF_ASC_NODE":"217.2243","REF_FRAME":"TEME","MEAN_MOTION_DOT":"0.00000995","ELEMENT_SET_NO":"999","MEAN_ANOMALY":"318.6615","SEMIMAJOR_AXIS":"6925.318","ARG_OF_PERICENTER":"41.4491","PERIOD":"95.592","EPOCH":"2021-08-27T11:07:59.109312","INCLINATION":"53.0547","APOAPSIS":"548.249","TIME_SYSTEM":"UTC","OBJECT_ID":"2020-001A","MEAN_ELEMENT_THEORY":"SGP4","TLE_LINE1":"1 44914U 20001A   21239.46387858  .00000995  00000-0  85669-4 0  9992","GP_ID":"183528557","SITE":"AFETR","OBJECT_TYPE":"PAYLOAD","COUNTRY_CODE":"US"},{"COUNTRY_CODE":"US","OBJECT_TYPE":"PAYLOAD","SITE":"AFETR","MEAN_ELEMENT_THEORY":"SGP4","OBJECT_ID":"2020-001B","TIME_SYSTEM":"UTC","GP_ID":"183529281","TLE_LINE1":"1 44915U 20001B   21239.22797876 -.00000609  00000-0 -22028-4 0  9996","APOAPSIS":"547.978","INCLINATION":"53.0544","EPOCH":"2021-08-27T05:28:17.364864","PERIOD":"95.592","ARG_OF_PERICENTER":"40.3301","SEMIMAJOR_AXIS":"6925.346","ELEMENT_SET_NO":"999","MEAN_ANOMALY":"319.7770","MEAN_MOTION_DOT":"-0.00000609","RA_OF_ASC_NODE":"218.2862","REF_FRAME":"TEME","PERIAPSIS":"546.444","FILE":"3103885","RCS_SIZE":"LARGE","CENTER_NAME":"EARTH","EPHEMERIS_TYPE":"0","TLE_LINE2":"2 44915  53.0544 218.2862 0001108  40.3301 319.7770 15.06400864 90339","BSTAR":"-0.00002202800000","LAUNCH_DATE":"2020-01-07","DECAY_DATE":null,"MEAN_MOTION_DDOT":"0.0000000000000","ECCENTRICITY":"0.00011080","REV_AT_EPOCH":"9033","NORAD_CAT_ID":"44915","MEAN_MOTION":"15.06400864","OBJECT_NAME":"STARLINK-1084","CLASSIFICATION_TYPE":"U"},{"COUNTRY_CODE":"US","SITE":"AFETR","OBJECT_TYPE":"PAYLOAD","OBJECT_ID":"2020-001C","TIME_SYSTEM":"UTC","MEAN_ELEMENT_THEORY":"SGP4","TLE_LINE1":"1 44916U 20001C   21239.34502149  .00000535  00000-0  87415-5 0  9995","GP_ID":"183527557","EPOCH":"2021-08-27T08:16:49.856736","APOAPSIS":"355.573","INCLINATION":"53.0539","SEMIMAJOR_AXIS":"6732.855","ARG_OF_PERICENTER":"56.2711","PERIOD":"91.634","MEAN_ANOMALY":"303.8427","ELEMENT_SET_NO":"999","RA_OF_ASC_NODE":"206.8371","REF_FRAME":"TEME","MEAN_MOTION_DOT":"0.00000535","FILE":"3103885","RCS_SIZE":"LARGE","PERIAPSIS":"353.867","EPHEMERIS_TYPE":"0","CENTER_NAME":"EARTH","BSTAR":"0.00000874150000","TLE_LINE2":"2 44916  53.0539 206.8371 0001267  56.2711 303.8427 15.71461819 90500","LAUNCH_DATE":"2020-01-07","DECAY_DATE":null,"MEAN_MOTION_DDOT":"0.0000000000000","ECCENTRICITY":"0.00012670","REV_AT_EPOCH":"9050","MEAN_MOTION":"15.71461819","NORAD_CAT_ID":"44916","OBJECT_NAME":"STARLINK-1097","CLASSIFICATION_TYPE":"U"},{"REV_AT_EPOCH":"9033","MEAN_MOTION":"15.06392367","NORAD_CAT_ID":"44917","OBJECT_NAME":"STARLINK-1098","CLASSIFICATION_TYPE":"U","RCS_SIZE":"LARGE","FILE":"3103885","EPHEMERIS_TYPE":"0","PERIAPSIS":"546.326","CENTER_NAME":"EARTH","BSTAR":"0.00005539600000","TLE_LINE2":"2 44917  53.0550 218.2696 0001315  51.5081 308.6026 15.06392367 90331","LAUNCH_DATE":"2020-01-07","DECAY_DATE":null,"MEAN_MOTION_DDOT":"0.0000000000000","ECCENTRICITY":"0.00013150","SEMIMAJOR_AXIS":"6925.372","ARG_OF_PERICENTER":"51.5081","PERIOD":"95.593","ELEMENT_SET_NO":"999","MEAN_ANOMALY":"308.6026","RA_OF_ASC_NODE":"218.2696","REF_FRAME":"TEME","MEAN_MOTION_DOT":"0.00000544","COUNTRY_CODE":"US","SITE":"AFETR","OBJECT_TYPE":"PAYLOAD","OBJECT_ID":"2020-001D","TIME_SYSTEM":"UTC","MEAN_ELEMENT_THEORY":"SGP4","TLE_LINE1":"1 44917U 20001D   21239.23167172  .00000544  00000-0  55396-4 0  9999","GP_ID":"183527807","EPOCH":"2021-08-27T05:33:36.436608","APOAPSIS":"548.148","INCLINATION":"53.0550"},{"MEAN_MOTION_DDOT":"0.0000000000000","DECAY_DATE":null,"ECCENTRICITY":"0.00009860","BSTAR":"0.00007564500000","TLE_LINE2":"2 44918  53.0540 217.9219 0000986  51.2731 308.8346 15.06396642 91080","FILE":"3103885","RCS_SIZE":"LARGE","PERIAPSIS":"546.541","CENTER_NAME":"EARTH","EPHEMERIS_TYPE":"0","LAUNCH_DATE":"2020-01-07","OBJECT_NAME":"STARLINK-1099","CLASSIFICATION_TYPE":"U","MEAN_MOTION":"15.06396642","NORAD_CAT_ID":"44918","REV_AT_EPOCH":"9108","TLE_LINE1":"1 44918U 20001E   21239.30908614  .00000846  00000-0  75645-4 0  9996","GP_ID":"183529057","OBJECT_ID":"2020-001E","TIME_SYSTEM":"UTC","MEAN_ELEMENT_THEORY":"SGP4","EPOCH":"2021-08-27T07:25:05.042496","APOAPSIS":"547.907","INCLINATION":"53.0540","COUNTRY_CODE":"US","SITE":"AFETR","OBJECT_TYPE":"PAYLOAD","RA_OF_ASC_NODE":"217.9219","REF_FRAME":"TEME","MEAN_MOTION_DOT":"0.00000846","ARG_OF_PERICENTER":"51.2731","SEMIMAJOR_AXIS":"6925.359","PERIOD":"95.592","MEAN_ANOMALY":"308.8346","ELEMENT_SET_NO":"999"},{"OBJECT_TYPE":"PAYLOAD","SITE":"AFETR","COUNTRY_CODE":"US","INCLINATION":"53.0538","APOAPSIS":"437.298","EPOCH":"2021-08-27T13:03:35.835264","GP_ID":"183535035","TLE_LINE1":"1 44919U 20001F   21239.54416476  .00225607  00000-0  48599-2 0  9993","MEAN_ELEMENT_THEORY":"SGP4","OBJECT_ID":"2020-001F","TIME_SYSTEM":"UTC","ELEMENT_SET_NO":"999","MEAN_ANOMALY":"272.9046","PERIOD":"93.309","SEMIMAJOR_AXIS":"6814.631","ARG_OF_PERICENTER":"87.2094","MEAN_MOTION_DOT":"0.00225607","RA_OF_ASC_NODE":"207.9619","REF_FRAME":"TEME","LAUNCH_DATE":"2020-01-07","TLE_LINE2":"2 44919  53.0538 207.9619 0001177  87.2094 272.9046 15.43260382 90501","BSTAR":"0.00485990000000","FILE":"3104000","CENTER_NAME":"EARTH","RCS_SIZE":"LARGE","PERIAPSIS":"435.694","EPHEMERIS_TYPE":"0","ECCENTRICITY":"0.00011770","MEAN_MOTION_DDOT":"0.0000000000000","DECAY_DATE":null,"NORAD_CAT_ID":"44919","MEAN_MOTION":"15.43260382","REV_AT_EPOCH":"9050","CLASSIFICATION_TYPE":"U","OBJECT_NAME":"STARLINK-1101"}];
